[{"OBJECT_NAME":"STARLINK-34021","OBJECT_ID":"2025-098Q","EPOCH":"2026-03-09T22:20:22.159392","MEAN_MOTION":14.98327028,"ECCENTRICITY":0.00042228,"INCLINATION":70.0012,"RA_OF_ASC_NODE":274.0373,"ARG_OF_PERICENTER":264.0878,"MEAN_ANOMALY":95.98,"EPHEMERIS_TYPE":0,"CLASSIFICATION_TYPE":"U","NORAD_CAT_ID":63940,"ELEMENT_SET_NO":999,"REV_AT_EPOCH":4658,"BSTAR":-0.0028715182,"MEAN_MOTION_DOT":-0.0003419,"MEAN_MOTION_DDOT":0},{"OBJECT_NAME":"METHANESAT","OBJECT_ID":"2024-043D","EPOCH":"2026-03-09T22:12:33.121440","MEAN_MOTION":14.97588653,"ECCENTRICITY":0.00100526,"INCLINATION":97.8288,"RA_OF_ASC_NODE":199.6058,"ARG_OF_PERICENTER":350.2517,"MEAN_ANOMALY":9.8508,"EPHEMERIS_TYPE":0,"CLASSIFICATION_TYPE":"U","NORAD_CAT_ID":59101,"ELEMENT_SET_NO":999,"REV_AT_EPOCH":10979,"BSTAR":0.00032562202,"MEAN_MOTION_DOT":3.748e-5,"MEAN_MOTION_DDOT":0}]
